ONEWEB-0228             
1 48780U 21045P   24237.16730346  .00000038  00000+0  67127-4 0  9994
2 48780  87.9048  30.9133 0001632  95.3447 264.7870 13.15546716158410
